{
  "type": "FeatureCollection",
  "name": "ai_scenario_nodes",
  "features": [
    {
      "type": "Feature",
      "id": "SN-001",
      "properties": {
        "id": "SN-001",
        "layer": "SCENARIO_NODE",
        "source_type": "agent_designed_from_provisional_constraint",
        "confidence": "low",
        "geometry_role": "design_proposal",
        "official_boundary": false,
        "boundary_precision": "provisional_rough",
        "source_id": "DATA-SRC-PROVISIONAL-BOUNDARIES-20260605",
        "derived_from_source_ids": [
          "DATA-SRC-OFFICIAL-ANNOUNCEMENT-20260509"
        ],
        "usage_note": "概念设计模型输出，基于临时粗略范围推导；不得作为官方红线、审批依据或精确面积复算依据。Conceptual design-model output derived from the provisional rough boundary; not an official redline, approval basis, or precise-area basis.",
        "name_zh": "晨曲工作律动声景",
        "name_en": "Prelude work-rhythm soundscape",
        "scenario_family": "adaptive_soundscape",
        "resonance_node_id": "RN-PRELUDE"
      },
      "geometry": {
        "type": "Point",
        "coordinates": [
          116.3459,
          40.0165
        ]
      }
    },
    {
      "type": "Feature",
      "id": "SN-002",
      "properties": {
        "id": "SN-002",
        "layer": "SCENARIO_NODE",
        "source_type": "agent_designed_from_provisional_constraint",
        "confidence": "low",
        "geometry_role": "design_proposal",
        "official_boundary": false,
        "boundary_precision": "provisional_rough",
        "source_id": "DATA-SRC-PROVISIONAL-BOUNDARIES-20260605",
        "derived_from_source_ids": [
          "DATA-SRC-OFFICIAL-ANNOUNCEMENT-20260509"
        ],
        "usage_note": "概念设计模型输出，基于临时粗略范围推导；不得作为官方红线、审批依据或精确面积复算依据。Conceptual design-model output derived from the provisional rough boundary; not an official redline, approval basis, or precise-area basis.",
        "name_zh": "夜合社区共鸣客厅",
        "name_en": "Chorus night-gathering commons",
        "scenario_family": "adaptive_soundscape",
        "resonance_node_id": "RN-CHORUS"
      },
      "geometry": {
        "type": "Point",
        "coordinates": [
          116.3459,
          39.9885
        ]
      }
    },
    {
      "type": "Feature",
      "id": "SN-003",
      "properties": {
        "id": "SN-003",
        "layer": "SCENARIO_NODE",
        "source_type": "agent_designed_from_provisional_constraint",
        "confidence": "low",
        "geometry_role": "design_proposal",
        "official_boundary": false,
        "boundary_precision": "provisional_rough",
        "source_id": "DATA-SRC-PROVISIONAL-BOUNDARIES-20260605",
        "derived_from_source_ids": [
          "DATA-SRC-OFFICIAL-ANNOUNCEMENT-20260509"
        ],
        "usage_note": "概念设计模型输出，基于临时粗略范围推导；不得作为官方红线、审批依据或精确面积复算依据。Conceptual design-model output derived from the provisional rough boundary; not an official redline, approval basis, or precise-area basis.",
        "name_zh": "尾声枢纽舒缓声景",
        "name_en": "Coda calm-transit soundscape",
        "scenario_family": "adaptive_soundscape",
        "resonance_node_id": "RN-CODA"
      },
      "geometry": {
        "type": "Point",
        "coordinates": [
          116.3459,
          39.9475
        ]
      }
    },
    {
      "type": "Feature",
      "id": "SN-004",
      "properties": {
        "id": "SN-004",
        "layer": "SCENARIO_NODE",
        "source_type": "agent_designed_from_provisional_constraint",
        "confidence": "low",
        "geometry_role": "design_proposal",
        "official_boundary": false,
        "boundary_precision": "provisional_rough",
        "source_id": "DATA-SRC-PROVISIONAL-BOUNDARIES-20260605",
        "derived_from_source_ids": [
          "DATA-SRC-OFFICIAL-ANNOUNCEMENT-20260509"
        ],
        "usage_note": "概念设计模型输出，基于临时粗略范围推导；不得作为官方红线、审批依据或精确面积复算依据。Conceptual design-model output derived from the provisional rough boundary; not an official redline, approval basis, or precise-area basis.",
        "name_zh": "缝合广场健康律动",
        "name_en": "Stitching-plaza wellbeing rhythm",
        "scenario_family": "adaptive_soundscape"
      },
      "geometry": {
        "type": "Point",
        "coordinates": [
          116.3485,
          39.97
        ]
      }
    },
    {
      "type": "Feature",
      "id": "SN-005",
      "properties": {
        "id": "SN-005",
        "layer": "SCENARIO_NODE",
        "source_type": "agent_designed_from_provisional_constraint",
        "confidence": "low",
        "geometry_role": "design_proposal",
        "official_boundary": false,
        "boundary_precision": "provisional_rough",
        "source_id": "DATA-SRC-PROVISIONAL-BOUNDARIES-20260605",
        "derived_from_source_ids": [
          "DATA-SRC-OFFICIAL-ANNOUNCEMENT-20260509"
        ],
        "usage_note": "概念设计模型输出，基于临时粗略范围推导；不得作为官方红线、审批依据或精确面积复算依据。Conceptual design-model output derived from the provisional rough boundary; not an official redline, approval basis, or precise-area basis.",
        "name_zh": "滨水冥想声景",
        "name_en": "Waterfront meditation soundscape",
        "scenario_family": "adaptive_soundscape"
      },
      "geometry": {
        "type": "Point",
        "coordinates": [
          116.34909999999999,
          39.995
        ]
      }
    },
    {
      "type": "Feature",
      "id": "SN-006",
      "properties": {
        "id": "SN-006",
        "layer": "SCENARIO_NODE",
        "source_type": "agent_designed_from_provisional_constraint",
        "confidence": "low",
        "geometry_role": "design_proposal",
        "official_boundary": false,
        "boundary_precision": "provisional_rough",
        "source_id": "DATA-SRC-PROVISIONAL-BOUNDARIES-20260605",
        "derived_from_source_ids": [
          "DATA-SRC-OFFICIAL-ANNOUNCEMENT-20260509"
        ],
        "usage_note": "概念设计模型输出，基于临时粗略范围推导；不得作为官方红线、审批依据或精确面积复算依据。Conceptual design-model output derived from the provisional rough boundary; not an official redline, approval basis, or precise-area basis.",
        "name_zh": "开发者共创回声墙",
        "name_en": "Developer co-creation echo wall",
        "scenario_family": "adaptive_soundscape"
      },
      "geometry": {
        "type": "Point",
        "coordinates": [
          116.34649999999999,
          40.009
        ]
      }
    }
  ]
}