{
  "type": "FeatureCollection",
  "name": "phasing_provisional_concept",
  "features": [
    {
      "type": "Feature",
      "id": "PHASE-001",
      "properties": {
        "id": "PHASE-001",
        "layer": "PHASE",
        "source_type": "agent_generated_design",
        "confidence": "low",
        "geometry_role": "design_proposal",
        "phase": "phase_1",
        "name_zh": "城市叠代轻层试验讨论范围（概念）",
        "name_en": "Jingzhang Strata Light-Layer Trial Discussion Area (Concept)",
        "concept_version": "jingzhang-strata-v3",
        "implementation_commitment": false,
        "human_decision": "pending",
        "coordinate_change_from_baseline": false,
        "area_sqm_declared": 4587013.573
      },
      "geometry": {
        "type": "Polygon",
        "coordinates": [
          [
            [
              116.3417,
              40.006
            ],
            [
              116.34218780487805,
              40.016
            ],
            [
              116.34843599999999,
              40.016
            ],
            [
              116.34843599999999,
              39.9495
            ],
            [
              116.340948,
              39.9495
            ],
            [
              116.340948,
              39.99434399999997
            ],
            [
              116.3417,
              40.006
            ]
          ]
        ]
      }
    }
  ]
}
