{"type":"FeatureCollection","name":"green_space","features":[{"type":"Feature","id":"GC-001","properties":{"id":"GC-001","layer":"GREEN_SPACE","green_type":"corridor_park","name_zh":"辩论走廊京张遗址公园绿带","geometry_role":"provisional_constraint","official_boundary":false},"geometry":{"type":"Polygon","coordinates":[[[116.346,39.94984],[116.348,39.94984],[116.348,40.0075],[116.346,40.0075],[116.346,39.94984]]]}},{"type":"Feature","id":"GC-002","properties":{"id":"GC-002","layer":"GREEN_SPACE","green_type":"wetland","name_zh":"知识湿地","geometry_role":"provisional_constraint","official_boundary":false},"geometry":{"type":"Polygon","coordinates":[[[116.343,39.985],[116.346,39.985],[116.346,39.992],[116.343,39.992],[116.343,39.985]]]}},{"type":"Feature","id":"GC-003","properties":{"id":"GC-003","layer":"GREEN_SPACE","green_type":"riverside","name_zh":"小月河蓝绿缓冲带","geometry_role":"provisional_constraint","official_boundary":false},"geometry":{"type":"Polygon","coordinates":[[[116.348,39.985],[116.351,39.985],[116.351,39.992],[116.348,39.992],[116.348,39.985]]]}},{"type":"Feature","id":"GC-004","properties":{"id":"GC-004","layer":"GREEN_SPACE","green_type":"buffer","name_zh":"众智园北侧绿带","geometry_role":"provisional_constraint","official_boundary":false},"geometry":{"type":"Polygon","coordinates":[[[116.343,40.024],[116.354,40.024],[116.354,40.026],[116.343,40.026],[116.343,40.024]]]}}]}