{"type":"FeatureCollection","name":"land_use","features":[{"type":"Feature","id":"LU-001","properties":{"id":"LU-001","layer":"LAND_USE","land_use_type":"mixed_use","name_zh":"混合用地-众智讲堂","source_type":"agent_generated","confidence":"low","geometry_role":"provisional_constraint","official_boundary":false,"boundary_precision":"provisional_rough"},"geometry":{"type":"Polygon","coordinates":[[[116.343,40.0075],[116.3485,40.0075],[116.3485,40.026],[116.343,40.026],[116.343,40.0075]]]}},{"type":"Feature","id":"LU-002","properties":{"id":"LU-002","layer":"LAND_USE","land_use_type":"research","name_zh":"研发用地-众智创新簇","source_type":"agent_generated","confidence":"low","geometry_role":"provisional_constraint","official_boundary":false,"boundary_precision":"provisional_rough"},"geometry":{"type":"Polygon","coordinates":[[[116.3485,40.0075],[116.354,40.0075],[116.354,40.026],[116.3485,40.026],[116.3485,40.0075]]]}},{"type":"Feature","id":"LU-003","properties":{"id":"LU-003","layer":"LAND_USE","land_use_type":"green_corridor","name_zh":"辩论走廊绿地北段","source_type":"agent_generated","confidence":"low","geometry_role":"provisional_constraint","official_boundary":false,"boundary_precision":"provisional_rough"},"geometry":{"type":"Polygon","coordinates":[[[116.346,39.9935],[116.348,39.9935],[116.348,40.0075],[116.346,40.0075],[116.346,39.9935]]]}},{"type":"Feature","id":"LU-004","properties":{"id":"LU-004","layer":"LAND_USE","land_use_type":"campus","name_zh":"校园创新用地-原点社区","source_type":"agent_generated","confidence":"low","geometry_role":"provisional_constraint","official_boundary":false,"boundary_precision":"provisional_rough"},"geometry":{"type":"Polygon","coordinates":[[[116.342,39.9835],[116.3475,39.9835],[116.3475,39.9935],[116.342,39.9935],[116.342,39.9835]]]}},{"type":"Feature","id":"LU-005","properties":{"id":"LU-005","layer":"LAND_USE","land_use_type":"residential","name_zh":"生活社区用地-原点外围","source_type":"agent_generated","confidence":"low","geometry_role":"provisional_constraint","official_boundary":false,"boundary_precision":"provisional_rough"},"geometry":{"type":"Polygon","coordinates":[[[116.3475,39.9835],[116.353,39.9835],[116.353,39.9935],[116.3475,39.9935],[116.3475,39.9835]]]}},{"type":"Feature","id":"LU-006","properties":{"id":"LU-006","layer":"LAND_USE","land_use_type":"green_corridor","name_zh":"辩论走廊绿地中段","source_type":"agent_generated","confidence":"low","geometry_role":"provisional_constraint","official_boundary":false,"boundary_precision":"provisional_rough"},"geometry":{"type":"Polygon","coordinates":[[[116.346,39.94984],[116.348,39.94984],[116.348,39.9835],[116.346,39.9835],[116.346,39.94984]]]}},{"type":"Feature","id":"LU-007","properties":{"id":"LU-007","layer":"LAND_USE","land_use_type":"commercial","name_zh":"商业产业用地-大钟寺","source_type":"agent_generated","confidence":"low","geometry_role":"provisional_constraint","official_boundary":false,"boundary_precision":"provisional_rough"},"geometry":{"type":"Polygon","coordinates":[[[116.342,39.944],[116.3485,39.944],[116.3485,39.94984],[116.342,39.94984],[116.342,39.944]]]}},{"type":"Feature","id":"LU-008","properties":{"id":"LU-008","layer":"LAND_USE","land_use_type":"public_experience","name_zh":"公共体验用地-场景市场","source_type":"agent_generated","confidence":"low","geometry_role":"provisional_constraint","official_boundary":false,"boundary_precision":"provisional_rough"},"geometry":{"type":"Polygon","coordinates":[[[116.3485,39.944],[116.355,39.944],[116.355,39.94984],[116.3485,39.94984],[116.3485,39.944]]]}}]}