{"type":"FeatureCollection","name":"public_space","features":[{"type":"Feature","id":"PS-001","properties":{"id":"PS-001","layer":"PUBLIC_SPACE","space_type":"debate_plaza","name_zh":"百家争鸣广场","geometry_role":"provisional_constraint","official_boundary":false},"geometry":{"type":"Polygon","coordinates":[[[116.346,39.975],[116.348,39.975],[116.348,39.977],[116.346,39.977],[116.346,39.975]]]}},{"type":"Feature","id":"PS-002","properties":{"id":"PS-002","layer":"PUBLIC_SPACE","space_type":"evolution_node","name_zh":"演化节点-众智原点","geometry_role":"provisional_constraint","official_boundary":false},"geometry":{"type":"Polygon","coordinates":[[[116.346,40.005],[116.348,40.005],[116.348,40.007],[116.346,40.007],[116.346,40.005]]]}},{"type":"Feature","id":"PS-003","properties":{"id":"PS-003","layer":"PUBLIC_SPACE","space_type":"evolution_node","name_zh":"演化节点-原点大钟寺","geometry_role":"provisional_constraint","official_boundary":false},"geometry":{"type":"Polygon","coordinates":[[[116.346,39.951],[116.348,39.951],[116.348,39.953],[116.346,39.953],[116.346,39.951]]]}},{"type":"Feature","id":"PS-004","properties":{"id":"PS-004","layer":"PUBLIC_SPACE","space_type":"debate_stages","name_zh":"辩论台节点群(7处)","geometry_role":"provisional_constraint","official_boundary":false},"geometry":{"type":"MultiPolygon","coordinates":[[[[116.3465,40.022],[116.3475,40.022],[116.3475,40.023],[116.3465,40.023],[116.3465,40.022]]],[[[116.3465,40.012],[116.3475,40.012],[116.3475,40.013],[116.3465,40.013],[116.3465,40.012]]],[[[116.3465,39.998],[116.3475,39.998],[116.3475,39.999],[116.3465,39.999],[116.3465,39.998]]],[[[116.3465,39.99],[116.3475,39.99],[116.3475,39.991],[116.3465,39.991],[116.3465,39.99]]],[[[116.3465,39.97],[116.3475,39.97],[116.3475,39.971],[116.3465,39.971],[116.3465,39.97]]],[[[116.3465,39.96],[116.3475,39.96],[116.3475,39.961],[116.3465,39.961],[116.3465,39.96]]],[[[116.3465,39.955],[116.3475,39.955],[116.3475,39.956],[116.3465,39.956],[116.3465,39.955]]]]}}]}