{
  "type": "FeatureCollection",
  "features": [
    {
      "type": "Feature",
      "id": "PUBLIC-SE-01",
      "properties": {
        "id": "PUBLIC-SE-01",
        "layer": "PUBLIC_SPACE",
        "source_type": "agent_generated_design",
        "confidence": "low",
        "geometry_role": "design_proposal",
        "land_use_code": "1403",
        "name_zh": "六处问路凳与接力桌与三处搭把手地标",
        "name_en": "Six Wayfinding Benches and Handover Tables and three Lend a Hand landmarks",
        "area_sqm_declared": 141745.075
      },
      "geometry": {
        "type": "MultiPolygon",
        "coordinates": [
          [
            [
              [
                116.3493776855559,
                39.94655645073926
              ],
              [
                116.34933782520113,
                39.94647217310002
              ],
              [
                116.3492898961317,
                39.94639220827864
              ],
              [
                116.34923435993069,
                39.94631732638005
              ],
              [
                116.34917175144213,
                39.94624824855788
              ],
              [
                116.34910267361995,
                39.94618564006931
              ],
              [
                116.34902779172137,
                39.94613010386832
              ],
              [
                116.34894782689999,
                39.946082174798875
              ],
              [
                116.34886354926074,
                39.94604231444412
              ],
              [
                116.3487757704434,
                39.94601090668106
              ],
              [
                116.34868533580591,
                39.94598825398362
              ],
              [
                116.34859311628331,
                39.94597457450967
              ],
              [
                116.3485,
                39.94597
              ],
              [
                116.34840688371669,
                39.94597457450967
              ],
              [
                116.34831466419409,
                39.94598825398362
              ],
              [
                116.3482242295566,
                39.94601090668106
              ],
              [
                116.34813645073926,
                39.94604231444412
              ],
              [
                116.34805217310002,
                39.946082174798875
              ],
              [
                116.34797220827863,
                39.94613010386832
              ],
              [
                116.34789732638005,
                39.94618564006931
              ],
              [
                116.34782824855787,
                39.94624824855788
              ],
              [
                116.34776564006931,
                39.94631732638005
              ],
              [
                116.34771010386831,
                39.94639220827864
              ],
              [
                116.34766217479887,
                39.94647217310002
              ],
              [
                116.34762231444411,
                39.94655645073926
              ],
              [
                116.34759090668105,
                39.94664422955661
              ],
              [
                116.34756825398362,
                39.94673466419409
              ],
              [
                116.34755457450966,
                39.946826883716696
              ],
              [
                116.34755,
                39.946920000000006
              ],
              [
                116.34755457450966,
                39.947013116283316
              ],
              [
                116.34756825398362,
                39.94710533580592
              ],
              [
                116.34759090668105,
                39.9471957704434
              ],
              [
                116.34762231444411,
                39.94728354926075
              ],
              [
                116.34766217479887,
                39.94736782689999
              ],
              [
                116.34771010386831,
                39.94744779172137
              ],
              [
                116.34776564006931,
                39.947522673619964
              ],
              [
                116.34782824855787,
                39.94759175144213
              ],
              [
                116.34789732638005,
                39.9476543599307
              ],
              [
                116.34797220827863,
                39.94770989613169
              ],
              [
                116.34805217310002,
                39.94775782520114
              ],
              [
                116.34813645073926,
                39.94779768555589
              ],
              [
                116.3482242295566,
                39.94782909331895
              ],
              [
                116.34831466419409,
                39.94785174601639
              ],
              [
                116.34840688371669,
                39.94786542549034
              ],
              [
                116.3485,
                39.94787000000001
              ],
              [
                116.34859311628331,
                39.94786542549034
              ],
              [
                116.34868533580591,
                39.94785174601639
              ],
              [
                116.3487757704434,
                39.94782909331895
              ],
              [
                116.34886354926074,
                39.94779768555589
              ],
              [
                116.34894782689999,
                39.94775782520114
              ],
              [
                116.34902779172137,
                39.94770989613169
              ],
              [
                116.34910267361995,
                39.9476543599307
              ],
              [
                116.34917175144213,
                39.94759175144213
              ],
              [
                116.34923435993069,
                39.947522673619964
              ],
              [
                116.3492898961317,
                39.94744779172137
              ],
              [
                116.34933782520113,
                39.94736782689999
              ],
              [
                116.3493776855559,
                39.94728354926075
              ],
              [
                116.34940909331895,
                39.9471957704434
              ],
              [
                116.34943174601638,
                39.94710533580592
              ],
              [
                116.34944542549034,
                39.947013116283316
              ],
              [
                116.34945,
                39.946920000000006
              ],
              [
                116.34944542549034,
                39.946826883716696
              ],
              [
                116.34943174601638,
                39.94673466419409
              ],
              [
                116.34940909331895,
                39.94664422955661
              ],
              [
                116.3493776855559,
                39.94655645073926
              ]
            ]
          ],
          [
            [
              [
                116.34784630455738,
                39.948318795846376
              ],
              [
                116.34781903168307,
                39.948261132198475
              ],
              [
                116.34778623810925,
                39.94820641942595
              ],
              [
                116.34774823965594,
                39.948155184442705
              ],
              [
                116.34770540226903,
                39.94810792066964
              ],
              [
                116.34765813849596,
                39.94806508328273
              ],
              [
                116.34760690351271,
                39.94802708482941
              ],
              [
                116.34755219074019,
                39.94799429125558
              ],
              [
                116.3474945270923,
                39.94796701838128
              ],
              [
                116.34743446790146,
                39.94794552885919
              ],
              [
                116.34737259157056,
                39.94793002964515
              ],
              [
                116.34730949400246,
                39.947920670005075
              ],
              [
                116.34724578286125,
                39.94791754007741
              ],
              [
                116.34718207172004,
                39.947920670005075
              ],
              [
                116.34711897415194,
                39.94793002964515
              ],
              [
                116.34705709782104,
                39.94794552885919
              ],
              [
                116.3469970386302,
                39.94796701838128
              ],
              [
                116.34693937498231,
                39.94799429125558
              ],
              [
                116.34688466220979,
                39.94802708482941
              ],
              [
                116.34683342722654,
                39.94806508328273
              ],
              [
                116.34678616345347,
                39.94810792066964
              ],
              [
                116.34674332606656,
                39.948155184442705
              ],
              [
                116.34670532761325,
                39.94820641942595
              ],
              [
                116.34667253403943,
                39.948261132198475
              ],
              [
                116.34664526116512,
                39.948318795846376
              ],
              [
                116.34662377164302,
                39.9483788550372
              ],
              [
                116.346608272429,
                39.9484407313681
              ],
              [
                116.34659891278892,
                39.9485038289362
              ],
              [
                116.34659578286126,
                39.94856754007741
              ],
              [
                116.34659891278892,
                39.94863125121863
              ],
              [
                116.346608272429,
                39.948694348786724
              ],
              [
                116.34662377164302,
                39.94875622511763
              ],
              [
                116.34664526116512,
                39.94881628430845
              ],
              [
                116.34667253403943,
                39.94887394795635
              ],
              [
                116.34670532761325,
                39.948928660728875
              ],
              [
                116.34674332606656,
                39.94897989571212
              ],
              [
                116.34678616345347,
                39.94902715948518
              ],
              [
                116.34683342722654,
                39.9490699968721
              ],
              [
                116.34688466220979,
                39.94910799532541
              ],
              [
                116.34693937498231,
                39.94914078889924
              ],
              [
                116.3469970386302,
                39.94916806177355
              ],
              [
                116.34705709782104,
                39.94918955129564
              ],
              [
                116.34711897415194,
                39.949205050509676
              ],
              [
                116.34718207172004,
                39.94921441014975
              ],
              [
                116.34724578286125,
                39.94921754007741
              ],
              [
                116.34730949400246,
                39.94921441014975
              ],
              [
                116.34737259157056,
                39.949205050509676
              ],
              [
                116.34743446790146,
                39.94918955129564
              ],
              [
                116.3474945270923,
                39.94916806177355
              ],
              [
                116.34755219074019,
                39.94914078889924
              ],
              [
                116.34760690351271,
                39.94910799532541
              ],
              [
                116.34765813849596,
                39.9490699968721
              ],
              [
                116.34770540226903,
                39.94902715948518
              ],
              [
                116.34774823965594,
                39.94897989571212
              ],
              [
                116.34778623810925,
                39.948928660728875
              ],
              [
                116.34781903168307,
                39.94887394795635
              ],
              [
                116.34784630455738,
                39.94881628430845
              ],
              [
                116.34786779407948,
                39.94875622511763
              ],
              [
                116.3478832932935,
                39.948694348786724
              ],
              [
                116.34789265293358,
                39.94863125121863
              ],
              [
                116.34789578286124,
                39.94856754007741
              ],
              [
                116.34789265293358,
                39.9485038289362
              ],
              [
                116.3478832932935,
                39.9484407313681
              ],
              [
                116.34786779407948,
                39.9483788550372
              ],
              [
                116.34784630455738,
                39.948318795846376
              ]
            ]
          ],
          [
            [
              [
                116.34848122987455,
                39.96132960343056
              ],
              [
                116.34845395700025,
                39.96127193978266
              ],
              [
                116.34842116342642,
                39.96121722701014
              ],
              [
                116.34838316497311,
                39.96116599202689
              ],
              [
                116.3483403275862,
                39.96111872825383
              ],
              [
                116.34829306381313,
                39.961075890866915
              ],
              [
                116.34824182882988,
                39.9610378924136
              ],
              [
                116.34818711605736,
                39.96100509883977
              ],
              [
                116.34812945240947,
                39.960977825965465
              ],
              [
                116.34806939321864,
                39.960956336443374
              ],
              [
                116.34800751688773,
                39.96094083722934
              ],
              [
                116.34794441931963,
                39.96093147758926
              ],
              [
                116.34788070817842,
                39.9609283476616
              ],
              [
                116.34781699703721,
                39.96093147758926
              ],
              [
                116.34775389946911,
                39.96094083722934
              ],
              [
                116.34769202313821,
                39.960956336443374
              ],
              [
                116.34763196394738,
                39.960977825965465
              ],
              [
                116.34757430029948,
                39.96100509883977
              ],
              [
                116.34751958752696,
                39.9610378924136
              ],
              [
                116.34746835254371,
                39.961075890866915
              ],
              [
                116.34742108877064,
                39.96111872825383
              ],
              [
                116.34737825138373,
                39.96116599202689
              ],
              [
                116.34734025293042,
                39.96121722701014
              ],
              [
                116.3473074593566,
                39.96127193978266
              ],
              [
                116.3472801864823,
                39.96132960343056
              ],
              [
                116.3472586969602,
                39.961389662621386
              ],
              [
                116.34724319774617,
                39.96145153895229
              ],
              [
                116.34723383810609,
                39.961514636520384
              ],
              [
                116.34723070817843,
                39.9615783476616
              ],
              [
                116.34723383810609,
                39.961642058802816
              ],
              [
                116.34724319774617,
                39.96170515637091
              ],
              [
                116.3472586969602,
                39.961767032701815
              ],
              [
                116.3472801864823,
                39.96182709189264
              ],
              [
                116.3473074593566,
                39.96188475554054
              ],
              [
                116.34734025293042,
                39.96193946831306
              ],
              [
                116.34737825138373,
                39.96199070329631
              ],
              [
                116.34742108877064,
                39.96203796706937
              ],
              [
                116.34746835254371,
                39.962080804456285
              ],
              [
                116.34751958752696,
                39.9621188029096
              ],
              [
                116.34757430029948,
                39.96215159648343
              ],
              [
                116.34763196394738,
                39.962178869357736
              ],
              [
                116.34769202313821,
                39.96220035887983
              ],
              [
                116.34775389946911,
                39.96221585809386
              ],
              [
                116.34781699703721,
                39.96222521773394
              ],
              [
                116.34788070817842,
                39.9622283476616
              ],
              [
                116.34794441931963,
                39.96222521773394
              ],
              [
                116.34800751688773,
                39.96221585809386
              ],
              [
                116.34806939321864,
                39.96220035887983
              ],
              [
                116.34812945240947,
                39.962178869357736
              ],
              [
                116.34818711605736,
                39.96215159648343
              ],
              [
                116.34824182882988,
                39.9621188029096
              ],
              [
                116.34829306381313,
                39.962080804456285
              ],
              [
                116.3483403275862,
                39.96203796706937
              ],
              [
                116.34838316497311,
                39.96199070329631
              ],
              [
                116.34842116342642,
                39.96193946831306
              ],
              [
                116.34845395700025,
                39.96188475554054
              ],
              [
                116.34848122987455,
                39.96182709189264
              ],
              [
                116.34850271939665,
                39.961767032701815
              ],
              [
                116.34851821861068,
                39.96170515637091
              ],
              [
                116.34852757825075,
                39.961642058802816
              ],
              [
                116.34853070817842,
                39.9615783476616
              ],
              [
                116.34852757825075,
                39.961514636520384
              ],
              [
                116.34851821861068,
                39.96145153895229
              ],
              [
                116.34850271939665,
                39.961389662621386
              ],
              [
                116.34848122987455,
                39.96132960343056
              ]
            ]
          ],
          [
            [
              [
                116.34810168642866,
                39.97516712489512
              ],
              [
                116.34807441355436,
                39.97510946124722
              ],
              [
                116.34804161998053,
                39.9750547484747
              ],
              [
                116.34800362152723,
                39.97500351349145
              ],
              [
                116.34796078414031,
                39.97495624971839
              ],
              [
                116.34791352036724,
                39.974913412331475
              ],
              [
                116.347862285384,
                39.97487541387816
              ],
              [
                116.34780757261147,
                39.97484262030433
              ],
              [
                116.34774990896358,
                39.974815347430024
              ],
              [
                116.34768984977275,
                39.97479385790793
              ],
              [
                116.34762797344185,
                39.9747783586939
              ],
              [
                116.34756487587374,
                39.97476899905382
              ],
              [
                116.34750116473253,
                39.97476586912616
              ],
              [
                116.34743745359133,
                39.97476899905382
              ],
              [
                116.34737435602322,
                39.9747783586939
              ],
              [
                116.34731247969232,
                39.97479385790793
              ],
              [
                116.34725242050149,
                39.974815347430024
              ],
              [
                116.3471947568536,
                39.97484262030433
              ],
              [
                116.34714004408107,
                39.97487541387816
              ],
              [
                116.34708880909783,
                39.974913412331475
              ],
              [
                116.34704154532476,
                39.97495624971839
              ],
              [
                116.34699870793784,
                39.97500351349145
              ],
              [
                116.34696070948453,
                39.9750547484747
              ],
              [
                116.34692791591071,
                39.97510946124722
              ],
              [
                116.3469006430364,
                39.97516712489512
              ],
              [
                116.34687915351431,
                39.975227184085945
              ],
              [
                116.34686365430028,
                39.97528906041685
              ],
              [
                116.3468542946602,
                39.97535215798494
              ],
              [
                116.34685116473254,
                39.97541586912616
              ],
              [
                116.3468542946602,
                39.975479580267375
              ],
              [
                116.34686365430028,
                39.97554267783547
              ],
              [
                116.34687915351431,
                39.975604554166374
              ],
              [
                116.3469006430364,
                39.975664613357196
              ],
              [
                116.34692791591071,
                39.9757222770051
              ],
              [
                116.34696070948453,
                39.97577698977762
              ],
              [
                116.34699870793784,
                39.97582822476087
              ],
              [
                116.34704154532476,
                39.97587548853393
              ],
              [
                116.34708880909783,
                39.975918325920844
              ],
              [
                116.34714004408107,
                39.97595632437416
              ],
              [
                116.3471947568536,
                39.97598911794799
              ],
              [
                116.34725242050149,
                39.976016390822295
              ],
              [
                116.34731247969232,
                39.976037880344386
              ],
              [
                116.34737435602322,
                39.97605337955842
              ],
              [
                116.34743745359133,
                39.9760627391985
              ],
              [
                116.34750116473253,
                39.97606586912616
              ],
              [
                116.34756487587374,
                39.9760627391985
              ],
              [
                116.34762797344185,
                39.97605337955842
              ],
              [
                116.34768984977275,
                39.976037880344386
              ],
              [
                116.34774990896358,
                39.976016390822295
              ],
              [
                116.34780757261147,
                39.97598911794799
              ],
              [
                116.347862285384,
                39.97595632437416
              ],
              [
                116.34791352036724,
                39.975918325920844
              ],
              [
                116.34796078414031,
                39.97587548853393
              ],
              [
                116.34800362152723,
                39.97582822476087
              ],
              [
                116.34804161998053,
                39.97577698977762
              ],
              [
                116.34807441355436,
                39.9757222770051
              ],
              [
                116.34810168642866,
                39.975664613357196
              ],
              [
                116.34812317595076,
                39.975604554166374
              ],
              [
                116.34813867516479,
                39.97554267783547
              ],
              [
                116.34814803480486,
                39.975479580267375
              ],
              [
                116.34815116473253,
                39.97541586912616
              ],
              [
                116.34814803480486,
                39.97535215798494
              ],
              [
                116.34813867516479,
                39.97528906041685
              ],
              [
                116.34812317595076,
                39.975227184085945
              ],
              [
                116.34810168642866,
                39.97516712489512
              ]
            ]
          ],
          [
            [
              [
                116.34837768555589,
                39.988136450739255
              ],
              [
                116.34833782520113,
                39.988052173100016
              ],
              [
                116.34828989613169,
                39.987972208278634
              ],
              [
                116.34823435993069,
                39.98789732638004
              ],
              [
                116.34817175144212,
                39.987828248557875
              ],
              [
                116.34810267361995,
                39.987765640069306
              ],
              [
                116.34802779172136,
                39.98771010386832
              ],
              [
                116.34794782689998,
                39.98766217479887
              ],
              [
                116.34786354926074,
                39.98762231444412
              ],
              [
                116.34777577044339,
                39.987590906681056
              ],
              [
                116.3476853358059,
                39.98756825398362
              ],
              [
                116.3475931162833,
                39.987554574509666
              ],
              [
                116.3475,
                39.98755
              ],
              [
                116.34740688371669,
                39.987554574509666
              ],
              [
                116.34731466419409,
                39.98756825398362
              ],
              [
                116.3472242295566,
                39.987590906681056
              ],
              [
                116.34713645073926,
                39.98762231444412
              ],
              [
                116.34705217310001,
                39.98766217479887
              ],
              [
                116.34697220827863,
                39.98771010386832
              ],
              [
                116.34689732638005,
                39.987765640069306
              ],
              [
                116.34682824855787,
                39.987828248557875
              ],
              [
                116.34676564006931,
                39.98789732638004
              ],
              [
                116.3467101038683,
                39.987972208278634
              ],
              [
                116.34666217479887,
                39.988052173100016
              ],
              [
                116.3466223144441,
                39.988136450739255
              ],
              [
                116.34659090668104,
                39.98822422955661
              ],
              [
                116.34656825398362,
                39.988314664194085
              ],
              [
                116.34655457450965,
                39.98840688371669
              ],
              [
                116.34655,
                39.9885
              ],
              [
                116.34655457450965,
                39.98859311628331
              ],
              [
                116.34656825398362,
                39.98868533580592
              ],
              [
                116.34659090668104,
                39.9887757704434
              ],
              [
                116.3466223144441,
                39.98886354926075
              ],
              [
                116.34666217479887,
                39.98894782689999
              ],
              [
                116.3467101038683,
                39.98902779172137
              ],
              [
                116.34676564006931,
                39.98910267361996
              ],
              [
                116.34682824855787,
                39.98917175144213
              ],
              [
                116.34686888488358,
                39.9892085820609
              ],
              [
                116.34686674083743,
                39.989252225123
              ],
              [
                116.34686987076509,
                39.98931593626422
              ],
              [
                116.34687923040516,
                39.989379033832314
              ],
              [
                116.3468947296192,
                39.98944091016322
              ],
              [
                116.34691621914129,
                39.98950096935404
              ],
              [
                116.3469434920156,
                39.98955863300194
              ],
              [
                116.34697628558942,
                39.989613345774465
              ],
              [
                116.34701428404273,
                39.98966458075771
              ],
              [
                116.34705712142964,
                39.989711844530774
              ],
              [
                116.34710438520271,
                39.98975468191769
              ],
              [
                116.34715562018596,
                39.989792680371
              ],
              [
                116.34721033295848,
                39.98982547394483
              ],
              [
                116.34726799660638,
                39.98985274681914
              ],
              [
                116.3473280557972,
                39.98987423634123
              ],
              [
                116.34738993212811,
                39.989889735555266
              ],
              [
                116.34745302969621,
                39.98989909519534
              ],
              [
                116.34751674083742,
                39.989902225123004
              ],
              [
                116.34758045197863,
                39.98989909519534
              ],
              [
                116.34764354954673,
                39.989889735555266
              ],
              [
                116.34770542587763,
                39.98987423634123
              ],
              [
                116.34776548506846,
                39.98985274681914
              ],
              [
                116.34782314871636,
                39.98982547394483
              ],
              [
                116.34787786148888,
                39.989792680371
              ],
              [
                116.34792909647213,
                39.98975468191769
              ],
              [
                116.3479763602452,
                39.989711844530774
              ],
              [
                116.34801919763211,
                39.98966458075771
              ],
              [
                116.34805719608542,
                39.989613345774465
              ],
              [
                116.34808998965924,
                39.98955863300194
              ],
              [
                116.34811726253355,
                39.98950096935404
              ],
              [
                116.34813875205565,
                39.98944091016322
              ],
              [
                116.34815425126968,
                39.989379033832314
              ],
              [
                116.34816361090975,
                39.98931593626422
              ],
              [
                116.34816674083741,
                39.989252225123
              ],
              [
                116.34816361090975,
                39.98918851398179
              ],
              [
                116.348162383839,
                39.9891802417427
              ],
              [
                116.34817175144212,
                39.98917175144213
              ],
              [
                116.34823435993069,
                39.98910267361996
              ],
              [
                116.34828989613169,
                39.98902779172137
              ],
              [
                116.34833782520113,
                39.98894782689999
              ],
              [
                116.34837768555589,
                39.98886354926075
              ],
              [
                116.34840909331895,
                39.9887757704434
              ],
              [
                116.34843174601637,
                39.98868533580592
              ],
              [
                116.34844542549034,
                39.98859311628331
              ],
              [
                116.34845,
                39.9885
              ],
              [
                116.34844542549034,
                39.98840688371669
              ],
              [
                116.34843174601637,
                39.988314664194085
              ],
              [
                116.34840909331895,
                39.98822422955661
              ],
              [
                116.34837768555589,
                39.988136450739255
              ]
            ]
          ],
          [
            [
              [
                116.34857843058866,
                40.00283852254476
              ],
              [
                116.34855115771435,
                40.002780858896855
              ],
              [
                116.34851836414053,
                40.00272614612433
              ],
              [
                116.34848036568722,
                40.002674911141085
              ],
              [
                116.34843752830031,
                40.00262764736802
              ],
              [
                116.34839026452724,
                40.00258480998111
              ],
              [
                116.348339029544,
                40.00254681152779
              ],
              [
                116.34828431677147,
                40.00251401795396
              ],
              [
                116.34822665312358,
                40.00248674507966
              ],
              [
                116.34816659393275,
                40.00246525555757
              ],
              [
                116.34810471760184,
                40.00244975634353
              ],
              [
                116.34804162003374,
                40.002440396703456
              ],
              [
                116.34797790889253,
                40.00243726677579
              ],
              [
                116.34791419775132,
                40.002440396703456
              ],
              [
                116.34785110018322,
                40.00244975634353
              ],
              [
                116.34778922385232,
                40.00246525555757
              ],
              [
                116.34772916466149,
                40.00248674507966
              ],
              [
                116.3476715010136,
                40.00251401795396
              ],
              [
                116.34761678824107,
                40.00254681152779
              ],
              [
                116.34756555325782,
                40.00258480998111
              ],
              [
                116.34751828948475,
                40.00262764736802
              ],
              [
                116.34747545209784,
                40.002674911141085
              ],
              [
                116.34743745364453,
                40.00272614612433
              ],
              [
                116.34740466007071,
                40.002780858896855
              ],
              [
                116.3473773871964,
                40.00283852254476
              ],
              [
                116.3473558976743,
                40.00289858173558
              ],
              [
                116.34734039846028,
                40.00296045806648
              ],
              [
                116.3473310388202,
                40.00302355563458
              ],
              [
                116.34732790889254,
                40.00308726677579
              ],
              [
                116.3473310388202,
                40.00315097791701
              ],
              [
                116.34734039846028,
                40.003214075485104
              ],
              [
                116.3473558976743,
                40.00327595181601
              ],
              [
                116.3473773871964,
                40.00333601100683
              ],
              [
                116.34740466007071,
                40.00339367465473
              ],
              [
                116.34743745364453,
                40.003448387427255
              ],
              [
                116.34747545209784,
                40.0034996224105
              ],
              [
                116.34751828948475,
                40.003546886183564
              ],
              [
                116.34756555325782,
                40.00358972357048
              ],
              [
                116.34761678824107,
                40.00362772202379
              ],
              [
                116.3476715010136,
                40.00366051559762
              ],
              [
                116.34772916466149,
                40.00368778847193
              ],
              [
                116.34778922385232,
                40.00370927799402
              ],
              [
                116.34785110018322,
                40.003724777208056
              ],
              [
                116.34791419775132,
                40.00373413684813
              ],
              [
                116.34797790889253,
                40.003737266775794
              ],
              [
                116.34804162003374,
                40.00373413684813
              ],
              [
                116.34810471760184,
                40.003724777208056
              ],
              [
                116.34816659393275,
                40.00370927799402
              ],
              [
                116.34822665312358,
                40.00368778847193
              ],
              [
                116.34828431677147,
                40.00366051559762
              ],
              [
                116.348339029544,
                40.00362772202379
              ],
              [
                116.34839026452724,
                40.00358972357048
              ],
              [
                116.34843752830031,
                40.003546886183564
              ],
              [
                116.34848036568722,
                40.0034996224105
              ],
              [
                116.34851836414053,
                40.003448387427255
              ],
              [
                116.34855115771435,
                40.00339367465473
              ],
              [
                116.34857843058866,
                40.00333601100683
              ],
              [
                116.34859992011076,
                40.00327595181601
              ],
              [
                116.34861541932479,
                40.003214075485104
              ],
              [
                116.34862477896486,
                40.00315097791701
              ],
              [
                116.34862790889252,
                40.00308726677579
              ],
              [
                116.34862477896486,
                40.00302355563458
              ],
              [
                116.34861541932479,
                40.00296045806648
              ],
              [
                116.34859992011076,
                40.00289858173558
              ],
              [
                116.34857843058866,
                40.00283852254476
              ]
            ]
          ],
          [
            [
              [
                116.34933782520113,
                40.016302173100016
              ],
              [
                116.3492898961317,
                40.016222208278634
              ],
              [
                116.34923435993069,
                40.01614732638004
              ],
              [
                116.34917175144213,
                40.016078248557875
              ],
              [
                116.34910267361995,
                40.016015640069305
              ],
              [
                116.34902779172137,
                40.015960103868316
              ],
              [
                116.34894782689999,
                40.01591217479887
              ],
              [
                116.34886354926074,
                40.01587231444412
              ],
              [
                116.3487757704434,
                40.015840906681056
              ],
              [
                116.34868533580591,
                40.01581825398362
              ],
              [
                116.34859311628331,
                40.015804574509666
              ],
              [
                116.3485,
                40.0158
              ],
              [
                116.34840688371669,
                40.015804574509666
              ],
              [
                116.34831466419409,
                40.01581825398362
              ],
              [
                116.3482242295566,
                40.015840906681056
              ],
              [
                116.34813645073926,
                40.01587231444412
              ],
              [
                116.34805217310002,
                40.01591217479887
              ],
              [
                116.34797220827863,
                40.015960103868316
              ],
              [
                116.34789732638005,
                40.016015640069305
              ],
              [
                116.34782824855787,
                40.016078248557875
              ],
              [
                116.34776564006931,
                40.01614732638004
              ],
              [
                116.34771010386831,
                40.016222208278634
              ],
              [
                116.34767786884805,
                40.01627598916084
              ],
              [
                116.34766538727668,
                40.016275375980555
              ],
              [
                116.34760167613547,
                40.01627850590822
              ],
              [
                116.34753857856737,
                40.01628786554829
              ],
              [
                116.34747670223646,
                40.01630336476233
              ],
              [
                116.34741664304563,
                40.01632485428442
              ],
              [
                116.34735897939774,
                40.016352127158726
              ],
              [
                116.34730426662522,
                40.016384920732555
              ],
              [
                116.34725303164197,
                40.01642291918587
              ],
              [
                116.3472057678689,
                40.016465756572785
              ],
              [
                116.34716293048199,
                40.01651302034585
              ],
              [
                116.34712493202868,
                40.016564255329094
              ],
              [
                116.34709213845485,
                40.01661896810162
              ],
              [
                116.34706486558055,
                40.01667663174952
              ],
              [
                116.34704337605845,
                40.01673669094034
              ],
              [
                116.34702787684442,
                40.016798567271245
              ],
              [
                116.34701851720435,
                40.01686166483934
              ],
              [
                116.34701538727668,
                40.016925375980556
              ],
              [
                116.34701851720435,
                40.01698908712177
              ],
              [
                116.34702787684442,
                40.01705218468987
              ],
              [
                116.34704337605845,
                40.01711406102077
              ],
              [
                116.34706486558055,
                40.01717412021159
              ],
              [
                116.34709213845485,
                40.01723178385949
              ],
              [
                116.34712493202868,
                40.01728649663202
              ],
              [
                116.34716293048199,
                40.017337731615264
              ],
              [
                116.3472057678689,
                40.017384995388326
              ],
              [
                116.34725303164197,
                40.01742783277524
              ],
              [
                116.34730426662522,
                40.017465831228556
              ],
              [
                116.34735897939774,
                40.017498624802386
              ],
              [
                116.34741664304563,
                40.01752589767669
              ],
              [
                116.34747670223646,
                40.01754738719878
              ],
              [
                116.34753857856737,
                40.01756288641282
              ],
              [
                116.34760167613547,
                40.01757224605289
              ],
              [
                116.34766538727668,
                40.017575375980556
              ],
              [
                116.34772909841789,
                40.01757224605289
              ],
              [
                116.34779219598599,
                40.01756288641282
              ],
              [
                116.34785407231689,
                40.01754738719878
              ],
              [
                116.34791413150772,
                40.01752589767669
              ],
              [
                116.34793806848047,
                40.017514576331735
              ],
              [
                116.34797220827863,
                40.01753989613169
              ],
              [
                116.34805217310002,
                40.01758782520113
              ],
              [
                116.34813645073926,
                40.01762768555589
              ],
              [
                116.3482242295566,
                40.01765909331895
              ],
              [
                116.34831466419409,
                40.017681746016386
              ],
              [
                116.34840688371669,
                40.01769542549034
              ],
              [
                116.3485,
                40.017700000000005
              ],
              [
                116.34859311628331,
                40.01769542549034
              ],
              [
                116.34868533580591,
                40.017681746016386
              ],
              [
                116.3487757704434,
                40.01765909331895
              ],
              [
                116.34886354926074,
                40.01762768555589
              ],
              [
                116.34894782689999,
                40.01758782520113
              ],
              [
                116.34902779172137,
                40.01753989613169
              ],
              [
                116.34910267361995,
                40.0174843599307
              ],
              [
                116.34917175144213,
                40.01742175144213
              ],
              [
                116.34923435993069,
                40.01735267361996
              ],
              [
                116.3492898961317,
                40.01727779172137
              ],
              [
                116.34933782520113,
                40.01719782689999
              ],
              [
                116.3493776855559,
                40.01711354926075
              ],
              [
                116.34940909331895,
                40.0170257704434
              ],
              [
                116.34943174601638,
                40.01693533580592
              ],
              [
                116.34944542549034,
                40.01684311628331
              ],
              [
                116.34945,
                40.01675
              ],
              [
                116.34944542549034,
                40.01665688371669
              ],
              [
                116.34943174601638,
                40.016564664194085
              ],
              [
                116.34940909331895,
                40.01647422955661
              ],
              [
                116.3493776855559,
                40.016386450739255
              ],
              [
                116.34933782520113,
                40.016302173100016
              ]
            ]
          ]
        ]
      }
    }
  ]
}
